start=new Date('2023-05-20T00:00:00.000Z').valueOf();
sats=[{"NORAD_CAT_ID":"52604","DECAY_DATE":null,"MEAN_ELEMENT_THEORY":"SGP4","OBJECT_TYPE":"PAYLOAD","BSTAR":"0.00025819000000","ELEMENT_SET_NO":"999","INCLINATION":"53.2163","SITE":"AFETR","CLASSIFICATION_TYPE":"U","OBJECT_NAME":"STARLINK-4013","OBJECT_ID":"2022-052G","MEAN_MOTION_DOT":"0.00003824","PERIAPSIS":"539.035","TIME_SYSTEM":"UTC","ECCENTRICITY":"0.00010090","MEAN_ANOMALY":"266.8121","APOAPSIS":"540.431","REV_AT_EPOCH":"5614","REF_FRAME":"TEME","RCS_SIZE":"LARGE","TLE_LINE2":"2 52604  53.2163 199.7801 0001009  93.2987 266.8121 15.08844112 56148","FILE":"3912278","TLE_LINE1":"1 52604U 22052G   23139.85565731  .00003824  00000-0  25819-3 0  9991","GP_ID":"232161071","EPHEMERIS_TYPE":"0","CENTER_NAME":"EARTH","ARG_OF_PERICENTER":"93.2987","LAUNCH_DATE":"2022-05-14","EPOCH":"2023-05-19T20:32:08.791584","SEMIMAJOR_AXIS":"6917.868","RA_OF_ASC_NODE":"199.7801","PERIOD":"95.437","COUNTRY_CODE":"US","MEAN_MOTION_DDOT":"0.0000000000000","MEAN_MOTION":"15.08844112"},{"COUNTRY_CODE":"US","MEAN_MOTION_DDOT":"0.0000000000000","MEAN_MOTION":"15.08839302","RA_OF_ASC_NODE":"204.6251","PERIOD":"95.438","EPOCH":"2023-05-19T21:21:49.842144","LAUNCH_DATE":"2022-05-14","SEMIMAJOR_AXIS":"6917.883","TLE_LINE1":"1 52605U 22052H   23139.89016021  .00000786  00000-0  67444-4 0  9994","GP_ID":"232162322","EPHEMERIS_TYPE":"0","ARG_OF_PERICENTER":"90.7509","CENTER_NAME":"EARTH","FILE":"3912278","TLE_LINE2":"2 52605  53.2162 204.6251 0001159  90.7509 269.3616 15.08839302 56075","REF_FRAME":"TEME","RCS_SIZE":"LARGE","ECCENTRICITY":"0.00011590","APOAPSIS":"540.549","MEAN_ANOMALY":"269.3616","REV_AT_EPOCH":"5607","MEAN_MOTION_DOT":"0.00000786","PERIAPSIS":"538.946","TIME_SYSTEM":"UTC","OBJECT_NAME":"STARLINK-4000","OBJECT_ID":"2022-052H","CLASSIFICATION_TYPE":"U","SITE":"AFETR","INCLINATION":"53.2162","ELEMENT_SET_NO":"999","DECAY_DATE":null,"MEAN_ELEMENT_THEORY":"SGP4","OBJECT_TYPE":"PAYLOAD","BSTAR":"0.00006744400000","NORAD_CAT_ID":"52605"},{"MEAN_MOTION":"15.08838130","MEAN_MOTION_DDOT":"0.0000000000000","COUNTRY_CODE":"US","PERIOD":"95.438","RA_OF_ASC_NODE":"201.5788","SEMIMAJOR_AXIS":"6917.886","LAUNCH_DATE":"2022-05-14","EPOCH":"2023-05-19T10:54:32.405472","CENTER_NAME":"EARTH","ARG_OF_PERICENTER":"96.9841","GP_ID":"232162045","EPHEMERIS_TYPE":"0","TLE_LINE1":"1 52606U 22052J   23139.45454173 -.00000086  00000-0  12668-4 0  9993","FILE":"3912278","TLE_LINE2":"2 52606  53.2162 201.5788 0001102  96.9841 263.1276 15.08838130 56085","RCS_SIZE":"LARGE","REF_FRAME":"TEME","REV_AT_EPOCH":"5608","APOAPSIS":"540.513","MEAN_ANOMALY":"263.1276","ECCENTRICITY":"0.00011020","TIME_SYSTEM":"UTC","PERIAPSIS":"538.989","MEAN_MOTION_DOT":"-0.00000086","OBJECT_ID":"2022-052J","OBJECT_NAME":"STARLINK-3928","CLASSIFICATION_TYPE":"U","SITE":"AFETR","INCLINATION":"53.2162","ELEMENT_SET_NO":"999","BSTAR":"0.00001266800000","MEAN_ELEMENT_THEORY":"SGP4","DECAY_DATE":null,"OBJECT_TYPE":"PAYLOAD","NORAD_CAT_ID":"52606"},{"CENTER_NAME":"EARTH","ARG_OF_PERICENTER":"95.3236","TLE_LINE1":"1 52607U 22052K   23139.88375553  .00000324  00000-0  38431-4 0  9995","EPHEMERIS_TYPE":"0","GP_ID":"232160821","LAUNCH_DATE":"2022-05-14","SEMIMAJOR_AXIS":"6917.875","EPOCH":"2023-05-19T21:12:36.477792","RA_OF_ASC_NODE":"204.6640","PERIOD":"95.437","MEAN_MOTION":"15.08841659","COUNTRY_CODE":"US","MEAN_MOTION_DDOT":"0.0000000000000","MEAN_ANOMALY":"264.7851","APOAPSIS":"540.317","REV_AT_EPOCH":"5606","ECCENTRICITY":"0.00008330","RCS_SIZE":"LARGE","REF_FRAME":"TEME","TLE_LINE2":"2 52607  53.2157 204.6640 0000833  95.3236 264.7851 15.08841659 56066","FILE":"3912278","SITE":"AFETR","CLASSIFICATION_TYPE":"U","OBJECT_NAME":"STARLINK-3947","OBJECT_ID":"2022-052K","PERIAPSIS":"539.164","TIME_SYSTEM":"UTC","MEAN_MOTION_DOT":"0.00000324","NORAD_CAT_ID":"52607","BSTAR":"0.00003843100000","DECAY_DATE":null,"OBJECT_TYPE":"PAYLOAD","MEAN_ELEMENT_THEORY":"SGP4","ELEMENT_SET_NO":"999","INCLINATION":"53.2157"},{"MEAN_MOTION_DDOT":"0.0000000000000","COUNTRY_CODE":"US","MEAN_MOTION":"15.08847983","PERIOD":"95.437","RA_OF_ASC_NODE":"201.0151","LAUNCH_DATE":"2022-05-14","EPOCH":"2023-05-19T13:54:42.355296","SEMIMAJOR_AXIS":"6917.856","EPHEMERIS_TYPE":"0","GP_ID":"232161571","TLE_LINE1":"1 52608U 22052L   23139.57965689  .00006145  00000-0  40373-3 0  9991","CENTER_NAME":"EARTH","ARG_OF_PERICENTER":"85.9168","FILE":"3912278","TLE_LINE2":"2 52608  53.2146 201.0151 0001311  85.9168 274.1974 15.08847983 56106","REF_FRAME":"TEME","RCS_SIZE":"LARGE","ECCENTRICITY":"0.00013110","REV_AT_EPOCH":"5610","MEAN_ANOMALY":"274.1974","APOAPSIS":"540.628","MEAN_MOTION_DOT":"0.00006145","TIME_SYSTEM":"UTC","PERIAPSIS":"538.814","OBJECT_NAME":"STARLINK-3979","OBJECT_ID":"2022-052L","CLASSIFICATION_TYPE":"U","SITE":"AFETR","INCLINATION":"53.2146","ELEMENT_SET_NO":"999","MEAN_ELEMENT_THEORY":"SGP4","DECAY_DATE":null,"OBJECT_TYPE":"PAYLOAD","BSTAR":"0.00040373000000","NORAD_CAT_ID":"52608"},{"TLE_LINE2":"2 52609  53.2155 199.5290 0000802  81.2424 278.8659 15.08845695 56154","FILE":"3912278","ECCENTRICITY":"0.00008020","APOAPSIS":"540.283","MEAN_ANOMALY":"278.8659","REV_AT_EPOCH":"5615","REF_FRAME":"TEME","RCS_SIZE":"LARGE","RA_OF_ASC_NODE":"199.5290","PERIOD":"95.437","COUNTRY_CODE":"US","MEAN_MOTION_DDOT":"0.0000000000000","MEAN_MOTION":"15.08845695","TLE_LINE1":"1 52609U 22052M   23139.89980887 -.00000574  00000-0 -18010-4 0  9990","GP_ID":"232161823","EPHEMERIS_TYPE":"0","CENTER_NAME":"EARTH","ARG_OF_PERICENTER":"81.2424","SEMIMAJOR_AXIS":"6917.863","LAUNCH_DATE":"2022-05-14","EPOCH":"2023-05-19T21:35:43.486368","ELEMENT_SET_NO":"999","INCLINATION":"53.2155","NORAD_CAT_ID":"52609","MEAN_ELEMENT_THEORY":"SGP4","DECAY_DATE":null,"OBJECT_TYPE":"PAYLOAD","BSTAR":"-0.00001801000000","OBJECT_ID":"2022-052M","OBJECT_NAME":"STARLINK-3997","MEAN_MOTION_DOT":"-0.00000574","PERIAPSIS":"539.173","TIME_SYSTEM":"UTC","SITE":"AFETR","CLASSIFICATION_TYPE":"U"},{"CENTER_NAME":"EARTH","ARG_OF_PERICENTER":"76.3615","GP_ID":"232162545","EPHEMERIS_TYPE":"0","TLE_LINE1":"1 52610U 22052N   23139.88648200  .00000901  00000-0  74710-4 0  9992","SEMIMAJOR_AXIS":"6917.887","LAUNCH_DATE":"2022-05-14","EPOCH":"2023-05-19T21:16:32.044800","PERIOD":"95.438","RA_OF_ASC_NODE":"204.6390","MEAN_MOTION":"15.08837742","MEAN_MOTION_DDOT":"0.0000000000000","COUNTRY_CODE":"US","REV_AT_EPOCH":"5607","APOAPSIS":"540.454","MEAN_ANOMALY":"283.7490","ECCENTRICITY":"0.00010140","RCS_SIZE":"LARGE","REF_FRAME":"TEME","TLE_LINE2":"2 52610  53.2167 204.6390 0001014  76.3615 283.7490 15.08837742 56074","FILE":"3912278","SITE":"AFETR","CLASSIFICATION_TYPE":"U","OBJECT_NAME":"STARLINK-3998","OBJECT_ID":"2022-052N","TIME_SYSTEM":"UTC","PERIAPSIS":"539.051","MEAN_MOTION_DOT":"0.00000901","NORAD_CAT_ID":"52610","BSTAR":"0.00007471000000","DECAY_DATE":null,"OBJECT_TYPE":"PAYLOAD","MEAN_ELEMENT_THEORY":"SGP4","ELEMENT_SET_NO":"999","INCLINATION":"53.2167"},{"LAUNCH_DATE":"2022-05-14","EPOCH":"2023-05-19T21:05:55.334688","SEMIMAJOR_AXIS":"6917.866","CENTER_NAME":"EARTH","ARG_OF_PERICENTER":"92.9267","TLE_LINE1":"1 52611U 22052P   23139.87911267  .00000976  00000-0  79363-4 0  9999","GP_ID":"232161321","EPHEMERIS_TYPE":"0","MEAN_MOTION":"15.08844848","COUNTRY_CODE":"US","MEAN_MOTION_DDOT":"0.0000000000000","RA_OF_ASC_NODE":"204.6733","PERIOD":"95.437","RCS_SIZE":"LARGE","REF_FRAME":"TEME","APOAPSIS":"540.382","MEAN_ANOMALY":"267.1833","REV_AT_EPOCH":"5607","ECCENTRICITY":"0.00009410","FILE":"3912278","TLE_LINE2":"2 52611  53.2161 204.6733 0000941  92.9267 267.1833 15.08844848 56077","CLASSIFICATION_TYPE":"U","SITE":"AFETR","PERIAPSIS":"539.080","TIME_SYSTEM":"UTC","MEAN_MOTION_DOT":"0.00000976","OBJECT_NAME":"STARLINK-3980","OBJECT_ID":"2022-052P","BSTAR":"0.00007936300000","DECAY_DATE":null,"OBJECT_TYPE":"PAYLOAD","MEAN_ELEMENT_THEORY":"SGP4","NORAD_CAT_ID":"52611","INCLINATION":"53.2161","ELEMENT_SET_NO":"999"},{"MEAN_ANOMALY":"287.4047","APOAPSIS":"540.524","REV_AT_EPOCH":"5610","ECCENTRICITY":"0.00011310","RCS_SIZE":"LARGE","REF_FRAME":"TEME","TLE_LINE2":"2 52612  53.2148 201.0315 0001131  72.7069 287.4047 15.08841384 56106","FILE":"3912278","CENTER_NAME":"EARTH","ARG_OF_PERICENTER":"72.7069","TLE_LINE1":"1 52612U 22052Q   23139.57598382  .00002426  00000-0  17048-3 0  9999","EPHEMERIS_TYPE":"0","GP_ID":"232161072","SEMIMAJOR_AXIS":"6917.876","LAUNCH_DATE":"2022-05-14","EPOCH":"2023-05-19T13:49:25.002048","RA_OF_ASC_NODE":"201.0315","PERIOD":"95.437","MEAN_MOTION":"15.08841384","COUNTRY_CODE":"US","MEAN_MOTION_DDOT":"0.0000000000000","NORAD_CAT_ID":"52612","BSTAR":"0.00017048000000","DECAY_DATE":null,"MEAN_ELEMENT_THEORY":"SGP4","OBJECT_TYPE":"PAYLOAD","ELEMENT_SET_NO":"999","INCLINATION":"53.2148","SITE":"AFETR","CLASSIFICATION_TYPE":"U","OBJECT_NAME":"STARLINK-4002","OBJECT_ID":"2022-052Q","PERIAPSIS":"538.959","TIME_SYSTEM":"UTC","MEAN_MOTION_DOT":"0.00002426"},{"ECCENTRICITY":"0.00010890","REV_AT_EPOCH":"5623","APOAPSIS":"540.499","MEAN_ANOMALY":"264.1536","REF_FRAME":"TEME","RCS_SIZE":"LARGE","TLE_LINE2":"2 52613  53.2151 191.1135 0001089  95.9581 264.1536 15.08839890 56236","FILE":"3912278","EPHEMERIS_TYPE":"0","GP_ID":"232162323","TLE_LINE1":"1 52613U 22052R   23139.55849837 -.00000060  00000-0  14290-4 0  9992","ARG_OF_PERICENTER":"95.9581","CENTER_NAME":"EARTH","LAUNCH_DATE":"2022-05-14","EPOCH":"2023-05-19T13:24:14.259168","SEMIMAJOR_AXIS":"6917.881","PERIOD":"95.438","RA_OF_ASC_NODE":"191.1135","MEAN_MOTION_DDOT":"0.0000000000000","COUNTRY_CODE":"US","MEAN_MOTION":"15.08839890","NORAD_CAT_ID":"52613","MEAN_ELEMENT_THEORY":"SGP4","DECAY_DATE":null,"OBJECT_TYPE":"PAYLOAD","BSTAR":"0.00001429000000","ELEMENT_SET_NO":"999","INCLINATION":"53.2151","SITE":"AFETR","CLASSIFICATION_TYPE":"U","OBJECT_ID":"2022-052R","OBJECT_NAME":"STARLINK-3921","MEAN_MOTION_DOT":"-0.00000060","TIME_SYSTEM":"UTC","PERIAPSIS":"538.992"}];
